"MEAN_MOTION","ECCENTRICITY","INCLINATION","RA_OF_ASC_NODE","ARG_OF_PERICENTER","MEAN_ANOMALY","SEMIMAJOR_AXIS","PERIOD","APOAPSIS","PERIAPSIS","OBJECT_AGE","CENT_FOCUS_DIST","OBJECT_TYPE","RCS_SIZE"
0.82530900281424,0.00127026749289968,0.615000331985105,0.135844937559019,0.00719508797252749,0.993173732440202,0.00504189381720696,0.00143677231142968,0.00290099220678903,0.0195260594075977,0.0333333333333333,6.68537673354939e-05,"PAYLOAD","MEDIUM"
0.881485519268515,0.00726171255285537,0.59764581062463,0.900903714120849,0.280490369371554,0.750707475558862,0.00324085663113241,0.000913069271714399,0.00197807806489919,0.0123849047221189,0.4,0.000366848608555948,"DEBRIS","MEDIUM"
0.874638450468973,0.00150332262386863,0.59715336605231,0.867094376713963,0.187709264109814,0.293361994415756,0.00345010784196673,0.000973337613191235,0.00197836613307368,0.0138652526411494,0.4,7.61585125757606e-05,"DEBRIS","MEDIUM"
0.949349883696131,7.57902864939703e-05,0.357164100237369,0.050976821923395,0.0823861324061751,0.917927557058491,0.00130303591513966,0.000362545650539831,0.000698234210299608,0.00644665107696711,0.383333333333333,3.40611901540395e-06,"PAYLOAD","MEDIUM"
0.914312299433566,0.00151625155509408,0.214476210500689,0.0966325959951426,0.149404539175186,0.851151920497165,0.00227379792790786,0.000636676942431883,0.00129302545692894,0.00970348902343231,0.0833333333333333,7.45791054263261e-05,"PAYLOAD","MEDIUM"
0.928168144922313,0.00123649623288839,0.67400238475967,0.28029584281503,0.999384968735911,0.200172733209974,0.0018826579008704,0.000525808143492606,0.00105933594484682,0.00835497470694573,0.0333333333333333,6.01686658150205e-05,"TBA","MEDIUM"
0.950141625321884,0.000737283448761197,0.36651224748383,0.257927327816053,0.0185009404644736,0.98183162206707,0.00128178312795836,0.000356542206434117,0.000699164637391934,0.00629048144265769,0.0166666666666667,3.52231554515981e-05,"PAYLOAD","MEDIUM"
0.928045393397682,0.00134639214830465,0.673733338497546,0.221743757916076,0.433706213399181,0.843997298717057,0.00188608246668495,0.000526743745171418,0.00106357418925315,0.0083534234863779,0.0166666666666667,6.55431703057273e-05,"TBA","MEDIUM"
0.919983957048306,0.00139052884455702,0.674211950357161,0.99568354197927,0.926319865704284,0.310847273340443,0.00211251339306732,0.000590910426976639,0.00119643652913451,0.00914881686896362,0.0166666666666667,6.8094472329667e-05,"PAYLOAD","MEDIUM"
0.929805933236195,0.00130637933528798,0.673332881464718,0.237152932410496,0.681523810793715,0.516041992671201,0.00183706339089767,0.000512943620408934,0.00103419123545493,0.00818500525329911,0.0166666666666667,6.35079225112572e-05,"PAYLOAD","MEDIUM"
0.942462014748343,0.00116081740269809,0.672396406814548,0.998737317261748,0.630650391394896,0.715826090048506,0.00148915139645944,0.000414861377746761,0.000828503936610539,0.00697227310080188,0.1,5.5898171317308e-05,"PAYLOAD","MEDIUM"
0.902179438055214,0.00273591788612866,0.67614092214396,0.778558785868733,0.166181503115297,0.834856995069964,0.00262444047316168,0.000736474454838546,0.00152277803729299,0.010789162109419,0.183333333333333,0.000135960134902845,"PAYLOAD","MEDIUM"
0.938388796879565,0.000930437223017153,0.357146117710852,0.249385536073415,0.10100430105197,0.899453604132041,0.00160027343735867,0.00044612606718041,0.000888584362198619,0.00739380218081869,0.0333333333333333,4.48866516916979e-05,"PAYLOAD","MEDIUM"
0.897327769266975,0.000713320343472662,0.335026918458925,0.326688112362928,0.349801114890007,0.688595746785004,0.00276684438684195,0.000777173127866888,0.00156363405114426,0.0115491997504912,0.216666666666667,3.54040776902273e-05,"PAYLOAD","MEDIUM"
0.853484272080519,0.00111835255100073,0.311278225650276,0.458623317430106,0.231268700603392,0.769305047459963,0.00411408109330891,0.0011656037581872,0.0023570532707787,0.0162640238649442,0.0333333333333333,5.75300137566788e-05,"PAYLOAD","MEDIUM"
0.931741595653424,0.00162269232509664,0.672637787651261,0.0177172863072684,0.292649042993019,0.942108261886659,0.00178334549224857,0.000497740093128232,0.00100933128310909,0.00795580737797167,0.0166666666666667,7.8833402925664e-05,"PAYLOAD","MEDIUM"
0.89204427712075,0.00112236497793277,0.678984927876236,0.20597091968032,0.698631347093477,0.301414173290468,0.00292338458964042,0.000822004041643318,0.00166338179547277,0.0120510296770453,0.3,5.60594702140261e-05,"PAYLOAD","MEDIUM"
0.933212183395892,0.000671189860686308,0.673036861412818,0.035440128974221,0.944373839003483,0.0559202238142371,0.00174266028509635,0.000486278972562779,0.000966253502072942,0.00792971866842179,0.0666666666666667,3.24335296616478e-05,"PAYLOAD","MEDIUM"
0.949784854497633,0.000579907147982541,0.357148884253393,0.062988560288864,0.873022434195961,0.127149754803847,0.00129135712175551,0.000359271044663987,0.000701571827769588,0.00634360571067549,0.383333333333333,2.76600305334752e-05,"PAYLOAD","MEDIUM"
0.913693727351181,0.000619362679480872,0.25516513492428,0.383792765564127,0.884750808166082,0.115352615485818,0.00229148962173383,0.000641666818052216,0.0012848304140339,0.00987865607326725,0.0166666666666667,3.03391213480036e-05,"PAYLOAD","MEDIUM"
0.92085354081988,7.45642671536267e-05,0.674176676939761,0.0430376173885165,0.221680991005932,0.778708145601484,0.00208793274707952,0.000583893414385547,0.00115509709053064,0.00922623687730355,0.0166666666666667,3.42558624334959e-06,"PAYLOAD","MEDIUM"
0.938341084999372,0.00100266090779376,0.676287548898639,0.0463428179467084,0.301819231366483,0.698823341818132,0.00160158182629114,0.000446437934406681,0.000890809440511938,0.00738951114210508,0.333333333333333,4.83911468942095e-05,"PAYLOAD","MEDIUM"
0.905790574634962,0.00893378002047675,0.675664385191251,0.999314900850929,0.24599111565949,0.756925371086105,0.0025192687575814,0.000706535201116547,0.00159003367821584,0.00963501371550949,0.0666666666666667,0.000443312163003897,"PAYLOAD","MEDIUM"
0.920226837432565,0.000913941690074348,0.674465088999674,0.0998727871450285,0.0168947477052306,0.232046149602294,0.00210564719549563,0.000588961256812447,0.00118264567917175,0.00918407188186887,0.0666666666666667,4.46671183189026e-05,"PAYLOAD","MEDIUM"
0.923306313844239,0.00176234707359215,0.241710746911155,0.495234171389804,0.611105786766383,0.388787231187762,0.00201879861361743,0.000564323745937052,0.00114944168315095,0.00877100400494932,0.0833333333333333,8.61586209335351e-05,"PAYLOAD","MEDIUM"
0.917077668593281,0.000964654308243108,0.448672336234514,0.755080110204838,0.895093000560862,0.402630611780583,0.00219495327310785,0.000614300468946952,0.00123571644584718,0.00949373176950692,0.133333333333333,4.72669386417298e-05,"PAYLOAD","MEDIUM"
0.924905434881601,0.00131897389760242,0.674034891634529,0.0193094611747978,0.316682209123408,0.684029900790911,0.00197389242999613,0.000551615156466516,0.00111418478749585,0.00866741470417287,0.0166666666666667,6.43488927244827e-05,"PAYLOAD","MEDIUM"
0.887346884621925,0.00104133624516642,0.678448218623258,0.0299729488628771,0.0371127198965947,0.963319333368706,0.00306384867451213,0.000862234913832255,0.00174351772603672,0.012558339239891,0.05,5.2179336598283e-05,"PAYLOAD","MEDIUM"
0.919976623652223,0.00151948378790044,0.674205725636443,0.995531019905937,0.859330904876554,0.380413087388059,0.00211272387302602,0.000590910426976639,0.00119920794364083,0.00913344568333694,0.0166666666666667,7.44317123097226e-05,"PAYLOAD","MEDIUM"
0.925634287787109,0.00395591858607425,0.672080329329224,0.934444123719016,0.833167074881862,0.405504405696918,0.00195346449670704,0.000545845612780506,0.00115622618532951,0.00826695804901257,0.116666666666667,0.000193370430748099,"PAYLOAD","MEDIUM"
0.929998488895674,0.0014160523380969,0.674442956659345,0.130994235554646,0.0431602495349069,0.313368267036987,0.00183171037356961,0.00051138428427758,0.00103331047528924,0.00815246991281798,0.0333333333333333,6.8849999114683e-05,"PAYLOAD","MEDIUM"
0.867212013303821,0.00120796341914949,0.685010457530805,0.00118100425089298,0.000423632645770604,0.999931384524182,0.00368015105953222,0.00103976533238692,0.00210613926853901,0.0147172152101568,0.15,6.14997394012728e-05,"PAYLOAD","MEDIUM"
0.907707142479697,0.00243944411837284,0.674171835490314,0.88153813371324,0.910402389899264,0.0895795871459601,0.00246373049172191,0.000690707939383302,0.00142285811428547,0.0102587856952725,0.133333333333333,0.000120710918110354,"PAYLOAD","MEDIUM"
0.877098556889415,0.00105181313771117,0.597181723113356,0.845781292237015,0.151129071283346,0.849474869373635,0.00337461380056335,0.000951584874158845,0.001924792074875,0.013656502673307,0.4,5.31171135740644e-05,"DEBRIS","MEDIUM"
0.91422901493563,0.00151257349707305,0.214423646192407,0.109594194048639,0.121452562727494,0.879049250632888,0.00227618147122396,0.000637300676884424,0.00129433666379214,0.00971237328668444,0.0833333333333333,7.44021452399085e-05,"PAYLOAD","MEDIUM"
0.881485519268515,0.00726171255285537,0.59764581062463,0.900903714120849,0.280490369371554,0.750707475558862,0.00324085663113241,0.000913069271714399,0.00197807806489919,0.0123849047221189,0.4,0.000366848608555948,"DEBRIS","MEDIUM"
0.909961878210795,0.00078409509630159,0.675456202865031,0.0321663218482453,0.889729394577558,0.110481472293654,0.00239863529800788,0.000672151839420188,0.0013506390918274,0.0102371693359311,0.05,3.85765899694914e-05,"PAYLOAD","MEDIUM"
0.919989575554144,0.00150856107014101,0.674170452219044,0.995145130725863,0.901694725037412,0.300863860506682,0.00211235411093641,0.000590832460170072,0.00119876756355799,0.00913350612050192,0.0166666666666667,7.38942682545747e-05,"PAYLOAD","MEDIUM"
0.934762053202762,0.000983044598348262,0.672466262013711,0.0448542691872907,0.212969992641293,0.0219286171259227,0.00169989303294725,0.000474194117544784,0.000947684693767736,0.00773978480460997,0.0166666666666667,4.75611373355474e-05,"TBA","MEDIUM"
